{
    "links": {
        "self": "http://www.neowsapp.com/rest/v1/neo/3273969?api_key=iIulBulltgU6a56xZRHN4H3l9WmuAYTsLGpBGhQ2"
    },
    "id": "3273969",
    "neo_reference_id": "3273969",
    "name": "(2005 ES95)",
    "designation": "2005 ES95",
    "nasa_jpl_url": "http://ssd.jpl.nasa.gov/sbdb.cgi?sstr=3273969",
    "absolute_magnitude_h": 25.8,
    "estimated_diameter": {
        "kilometers": {
            "estimated_diameter_min": 0.0183888672,
            "estimated_diameter_max": 0.0411187571
        },
        "meters": {
            "estimated_diameter_min": 18.388867207,
            "estimated_diameter_max": 41.1187571041
        },
        "miles": {
            "estimated_diameter_min": 0.0114263088,
            "estimated_diameter_max": 0.0255500032
        },
        "feet": {
            "estimated_diameter_min": 60.3309310875,
            "estimated_diameter_max": 134.9040630575
        }
    },
    "is_potentially_hazardous_asteroid": false,
    "close_approach_data": [
        {
            "close_approach_date": "2005-03-20",
            "close_approach_date_full": "2005-Mar-20 15:30",
            "epoch_date_close_approach": 1111332600000,
            "relative_velocity": {
                "kilometers_per_second": "11.2028415989",
                "kilometers_per_hour": "40330.229756202",
                "miles_per_hour": "25059.6363726801"
            },
            "miss_distance": {
                "astronomical": "0.0338795614",
                "lunar": "13.1791493846",
                "kilometers": "5068310.221974218",
                "miles": "3149301.9368634884"
            },
            "orbiting_body": "Earth"
        }
    ],
    "orbital_data": {
        "orbit_id": "6",
        "orbit_determination_date": "2017-04-06 09:11:18",
        "first_observation_date": "2005-03-10",
        "last_observation_date": "2005-03-12",
        "data_arc_in_days": 2,
        "observations_used": 15,
        "orbit_uncertainty": "9",
        "minimum_orbit_intersection": ".0333966",
        "jupiter_tisserand_invariant": "3.626",
        "epoch_osculation": "2453440.5",
        "eccentricity": ".5348939362011956",
        "semi_major_axis": "2.013523804205152",
        "inclination": "7.591135846954883",
        "ascending_node_longitude": "167.8768087188609",
        "orbital_period": "1043.598819783349",
        "perihelion_distance": ".9365021309390524",
        "perihelion_argument": "51.01623121515448",
        "aphelion_distance": "3.09054547747125",
        "perihelion_time": "2452436.652270984913",
        "mean_anomaly": "346.287457972073",
        "mean_motion": ".3449601448138242",
        "equinox": "J2000",
        "orbit_class": {
            "orbit_class_type": "APO",
            "orbit_class_description": "Near-Earth asteroid orbits which cross the Earth’s orbit similar to that of 1862 Apollo",
            "orbit_class_range": "a (semi-major axis) > 1.0 AU; q (perihelion) < 1.017 AU"
        }
    },
    "is_sentry_object": false
}